H1 CPF 01  gfz 2021 06 17 00  6681 terrasarx 
H2 0702601  6201 31698    2021 06 17 00 59 42 2021 06 22 00 00 42   120 1 1  0 0 0
H9
10 0 59383  33102.000000  0   -3531115.886   4586795.014   3725865.359
10 0 59383  33222.000000  0   -3053905.918   4272230.096   4448950.094
10 0 59383  33342.000000  0   -2529562.246   3874237.014   5093728.511
10 0 59383  33462.000000  0   -1968670.531   3399064.062   5648885.257
10 0 59383  33582.000000  0   -1382325.698   2854493.680   6104692.574
10 0 59383  33702.000000  0    -781909.398   2249708.586   6453175.195
10 0 59383  33822.000000  0    -178868.579   1595132.140   6688242.292
10 0 59383  33942.000000  0     415502.165    902246.242   6805788.884
10 0 59383  34062.000000  0     990271.838    183388.559   6803762.411
10 0 59383  34182.000000  0    1535072.837   -548466.213   6682196.355
10 0 59383  34302.000000  0    2040287.276  -1279939.997   6443210.560
10 0 59383  34422.000000  0    2497216.781  -1997494.975   6090976.850
10 0 59383  34542.000000  0    2898234.109  -2687684.460   5631651.773
10 0 59383  34662.000000  0    3236913.179  -3337406.425   5073274.307
10 0 59383  34782.000000  0    3508134.853  -3934155.313   4425631.212
10 0 59383  34902.000000  0    3708167.917  -4466267.560   3700090.639
10 0 59383  35022.000000  0    3834721.851  -4923155.680   2909404.788
10 0 59383  35142.000000  0    3886970.379  -5295525.139   2067485.784
10 0 59383  35262.000000  0    3865545.246  -5575568.879   1189157.726
10 0 59383  35382.000000  0    3772499.607  -5757133.924    289889.621
10 0 59383  35502.000000  0    3611242.558  -5835855.828   -614483.610
10 0 59383  35622.000000  0    3386446.400  -5809259.322  -1508049.351
10 0 59383  35742.000000  0    3103926.751  -5676819.004  -2375106.110
10 0 59383  35862.000000  0    2770501.860  -5439981.577  -3200446.098
10 0 59383  35982.000000  0    2393832.702  -5102147.641  -3969627.139
10 0 59383  36102.000000  0    1982248.475  -4668614.316  -4669226.006
10 0 59383  36222.000000  0    1544563.242  -4146481.646  -5287068.481
10 0 59383  36342.000000  0    1089889.208  -3544526.152  -5812433.664
10 0 59383  36462.000000  0     627448.995  -2873045.111  -6236230.172
10 0 59383  36582.000000  0     166390.821  -2143674.902  -6551142.325
10 0 59383  36702.000000  0    -284388.971  -1369186.535  -6751745.356
10 0 59383  36822.000000  0    -716412.829   -563262.535  -6834589.374
10 0 59383  36942.000000  0   -1121776.686    259741.482  -6798251.922
10 0 59383  37062.000000  0   -1493291.125   1085046.329  -6643358.733
10 0 59383  37182.000000  0   -1824605.861   1897707.909  -6372574.009
10 0 59383  37302.000000  0   -2110316.076   2682880.898  -5990559.786
10 0 59383  37422.000000  0   -2346050.745   3426085.792  -5503905.315
10 0 59383  37542.000000  0   -2528540.020   4113474.473  -4921024.223
10 0 59383  37662.000000  0   -2655661.833   4732090.714  -4252020.754
10 0 59383  37782.000000  0   -2726465.469   5270119.678  -3508523.780
10 0 59383  37902.000000  0   -2741170.801   5717119.671  -2703492.372
10 0 59383  38022.000000  0   -2701144.156   6064234.280  -1850996.799
10 0 59383  38142.000000  0   -2608850.298   6304378.597   -965973.429
10 0 59383  38262.000000  0   -2467780.981   6432391.071    -63960.991
10 0 59383  38382.000000  0   -2282363.345   6445152.516    839175.968
10 0 59383  38502.000000  0   -2057847.308   6341664.762   1727537.209
10 0 59383  38622.000000  0   -1800174.336   6123082.193   2585477.426
10 0 59383  38742.000000  0   -1515833.353   5792700.203   3397889.496
10 0 59383  38862.000000  0   -1211707.771   5355901.688   4150476.092
10 0 59383  38982.000000  0    -894917.405   4820062.750   4830005.740
10 0 59383  39102.000000  0    -572656.580   4194418.031   5424547.275
10 0 59383  39222.000000  0    -252034.879   3489892.434   5923675.677
10 0 59383  39342.000000  0      60075.185   2718902.169   6318651.534
10 0 59383  39462.000000  0     357182.011   1895128.832   6602567.656
10 0 59383  39582.000000  0     633307.264   1033272.628   6770464.209
10 0 59383  39702.000000  0     883104.081    148787.480   6819409.424
10 0 59383  39822.000000  0    1101959.199   -742394.968   6748547.418
10 0 59383  39942.000000  0    1286077.616  -1624151.828   6559113.388
10 0 59383  40062.000000  0    1432548.609  -2480460.119   6254413.711
10 0 59383  40182.000000  0    1539391.925  -3295688.793   5839772.343
10 0 59383  40302.000000  0    1605582.979  -4054886.685   5322442.403
10 0 59383  40422.000000  0    1631057.385  -4744059.524   4711484.181
10 0 59383  40542.000000  0    1616695.402  -5350433.299   4017613.389
10 0 59383  40662.000000  0    1564285.727  -5862701.049   3253017.710
10 0 59383  40782.000000  0    1476468.375  -6271242.730   2431142.413
10 0 59383  40902.000000  0    1356658.627  -6568314.139   1566453.057
10 0 59383  41022.000000  0    1208953.784  -6748202.688    674177.550
10 0 59383  41142.000000  0    1038024.706  -6807343.896   -229968.717
10 0 59383  41262.000000  0     848993.380  -6744395.725  -1130069.721
10 0 59383  41382.000000  0     647301.036  -6560264.488  -2010299.618
10 0 59383  41502.000000  0     438571.585  -6258084.967  -2855207.920
10 0 59383  41622.000000  0     228473.194  -5843158.214  -3649995.381
10 0 59383  41742.000000  0      22580.824  -5322847.160  -4380775.762
10 0 59383  41862.000000  0    -173756.849  -4706432.339  -5034816.510
10 0 59383  41982.000000  0    -355542.499  -4004934.341  -5600754.447
10 0 59383  42102.000000  0    -518244.621  -3230906.550  -6068784.705
10 0 59383  42222.000000  0    -657898.860  -2398203.164  -6430819.859
10 0 59383  42342.000000  0    -771194.849  -1521727.512  -6680618.158
10 0 59383  42462.000000  0    -855547.093   -617166.079  -6813880.474
10 0 59383  42582.000000  0    -909148.784    299288.770  -6828316.668
10 0 59383  42702.000000  0    -931007.601   1211222.329  -6723679.354
10 0 59383  42822.000000  0    -920963.569   2102283.816  -6501767.586
10 0 59383  42942.000000  0    -879688.646   2956472.037  -6166399.461
10 0 59383  43062.000000  0    -808667.648   3758418.233  -5723354.953
10 0 59383  43182.000000  0    -710161.031   4493661.396  -5180286.033
10 0 59383  43302.000000  0    -587149.783   5148911.035  -4546596.170
10 0 59383  43422.000000  0    -443263.849   5712294.113  -3833288.328
10 0 59383  43542.000000  0    -282694.595   6173579.392  -3052782.517
10 0 59383  43662.000000  0    -110092.866   6524374.458  -2218706.152
10 0 59383  43782.000000  0      69545.024   6758291.271  -1345659.117
10 0 59383  43902.000000  0     251000.903   6871074.872   -448957.243
10 0 59383  44022.000000  0     428965.453   6860691.114    455640.804
10 0 59383  44142.000000  0     598172.623   6727370.634   1352217.964
10 0 59383  44262.000000  0     753533.468   6473606.350   2224987.935
10 0 59383  44382.000000  0     890265.003   6104104.877   3058581.237
10 0 59383  44502.000000  0    1004012.202   5625695.644   3838322.971
10 0 59383  44622.000000  0    1090961.788   5047197.692   4550496.109
10 0 59383  44742.000000  0    1147942.320   4379248.005   5182589.281
10 0 59383  44862.000000  0    1172507.264   3634091.908   5723513.928
10 0 59383  44982.000000  0    1163003.702   2825350.925   6163793.568
10 0 59383  45102.000000  0    1118621.243   1967766.947   6495725.257
10 0 59383  45222.000000  0    1039421.952   1076928.372   6713508.662
10 0 59383  45342.000000  0     926350.797    168983.687   6813340.888
10 0 59383  45462.000000  0     781226.354   -739650.186   6793478.382
10 0 59383  45582.000000  0     606711.551  -1632584.278   6654267.048
10 0 59383  45702.000000  0     406264.783  -2493753.043   6398136.762
10 0 59383  45822.000000  0     184072.165  -3307704.483   6029561.950
10 0 59383  45942.000000  0     -55037.353  -4059878.938   5554985.413
10 0 59383  46062.000000  0    -305692.215  -4736870.596   4982711.311
10 0 59383  46182.000000  0    -562092.644  -5326672.045   4322768.524
10 0 59383  46302.000000  0    -818138.728  -5818898.049   3586740.638
10 0 59383  46422.000000  0   -1067568.623  -6204978.206   2787563.908
10 0 59383  46542.000000  0   -1304102.886  -6478315.439   1939299.612
10 0 59383  46662.000000  0   -1521592.085  -6634408.340   1056884.376
10 0 59383  46782.000000  0   -1714165.692  -6670931.915    155859.982
10 0 59383  46902.000000  0   -1876374.828  -6587773.154   -747909.240
10 0 59383  47022.000000  0   -2003326.923  -6387022.259  -1638524.550
10 0 59383  47142.000000  0   -2090809.235  -6072920.026  -2500340.487
10 0 59383  47262.000000  0   -2135398.247  -5651762.613  -3318246.525
10 0 59383  47382.000000  0   -2134551.785  -5131765.538  -4077936.236
10 0 59383  47502.000000  0   -2086681.511  -4522891.628  -4766157.154
10 0 59383  47622.000000  0   -1991204.807  -3836649.244  -5370937.125
10 0 59383  47742.000000  0   -1848575.528  -3085866.100  -5881784.903
10 0 59383  47862.000000  0   -1660293.035  -2284443.136  -6289862.962
10 0 59383  47982.000000  0   -1428889.126  -1447093.044  -6588129.298
10 0 59383  48102.000000  0   -1157894.367   -589070.201  -6771447.148
10 0 59383  48222.000000  0    -851784.849    274103.778  -6836663.688
10 0 59383  48342.000000  0    -515908.779   1126914.463  -6782657.775
10 0 59383  48462.000000  0    -156394.902   1954126.139  -6610356.844
10 0 59383  48582.000000  0     219955.222   2741046.831  -6322723.323
10 0 59383  48702.000000  0     605792.291   3473785.352  -5924711.154
10 0 59383  48822.000000  0     993359.105   4139495.159  -5423188.450
10 0 59383  48942.000000  0    1374641.627   4726600.386  -4826829.917
10 0 59383  49062.000000  0    1741530.563   5225003.049  -4145978.726
10 0 59383  49182.000000  0    2085990.146   5626265.151  -3392476.417
10 0 59383  49302.000000  0    2400230.169   5923761.436  -2579464.868
10 0 59383  49422.000000  0    2676878.386   6112800.492  -1721161.930
10 0 59383  49542.000000  0    2909148.849   6190709.705   -832613.060
99
